{
  "norad_id": 55382,
  "name": "STARLINK-5576",
  "history": [
    {
      "epoch": "2026-03-28T14:32:08.335392",
      "apogee_km": 536.4362395214966,
      "perigee_km": 535.1225954021802,
      "latitude_deg": 23.80060082830418,
      "longitude_deg": 136.3425948799122,
      "semi_major_axis_km": 6913.916417461838,
      "eccentricity": 9.5e-05,
      "inclination_deg": 42.9996,
      "raan_deg": 209.7881,
      "arg_perigee_deg": 83.2522,
      "mean_anomaly_deg": 276.8431,
      "mean_motion_rev_day": 15.10137786
    }
  ]
}