{"fetched_at":"2026-03-29T02:12:04Z","count":15717,"tles":[{"name":"STARLINK-5576","line1":"1 55382U 23013BD  26087.60565203  .00067040  00000+0  40154-2 0  9994","line2":"2 55382  42.9996 209.7881 0000949  83.2522 276.8431 15.10137786174410","category":"Starlink"}]}